#aV2011  7  4  0  0   .00000000      96 DD+AD WGS84 FIT  NGA
## 1643  86400.00000000   900.00000000 55746  .0000000000000
+   32     1  2  3  4  5  6  7  8  9 10 11 12 13 14 15 16 17
+         18 19 20 21 22 23 24 25 26 27 28 29 30 31 32  0  0
+          0  0  0  0  0  0  0  0  0  0  0  0  0  0  0  0  0
+          0  0  0  0  0  0  0  0  0  0  0  0  0  0  0  0  0
+          0  0  0  0  0  0  0  0  0  0  0  0  0  0  0  0  0
++         0  0  0  0  0  0  0  0  0  0  0  0  0  0  0  0  0
++         0  0  0  0  0  0  0  0  0  0  0  0  0  0  0  0  0
++         0  0  0  0  0  0  0  0  0  0  0  0  0  0  0  0  0
++         0  0  0  0  0  0  0  0  0  0  0  0  0  0  0  0  0
++         0  0  0  0  0  0  0  0  0  0  0  0  0  0  0  0  0
%c cc cc ccc ccc cccc cccc cccc cccc ccccc ccccc ccccc ccccc
%c cc cc ccc ccc cccc cccc cccc cccc ccccc ccccc ccccc ccccc
%f  0.0000000  0.000000000  0.00000000000  0.000000000000000
%f  0.0000000  0.000000000  0.00000000000  0.000000000000000
%i    0    0    0    0      0      0      0      0         0
%i    0    0    0    0      0      0      0      0         0
/*      NGA, ST. LOUIS,MO.                                  
/*   EPHEMERIS COMPUTED FROM  3 DAYS OF DATA                
/* CCCCCCCCCCCCCCCCCCCCCCCCCCCCCCCCCCCCCCCCCCCCCCCCCCCCCCCCC
/* CCCCCCCCCCCCCCCCCCCCCCCCCCCCCCCCCCCCCCCCCCCCCCCCCCCCCCCCC
*  2011  7  4  8 45   .00000000                                                 
P  1   5881.376152 -14624.010616 -21740.306423     94.836566                    
V  1  26388.055287   4506.201357   4214.900491       .011058                    
P  2  21350.066621 -11161.802171 -10557.158276    344.925628                    
V  2  -6965.908586  12297.544888 -27427.610274       .018469                    
P  3 -14814.539296   5219.150268  20999.148964    737.319183                    
V  3 -10734.761726 -25625.049998   -866.851861       .048865                    
P  4  18220.635418   1975.541637 -19546.271143    162.387754                    
V  4 -16207.488807  18212.271521 -13068.904968       .108441                    
P  5  23219.783547  -3199.217529  12581.169787   -184.268833                    
V  5  14856.045044   6335.761106 -25674.951922      -.055509                    
P  6 -16357.438099     55.186756  21109.464861     65.487439                    
V  6  -7873.036750 -25322.579305  -5838.886256      -.838741                    
P  7   2037.157963  17189.789207  20079.845994     16.613789                    
V  7 -18860.797774  17227.427177 -13052.190247       .014048                    
P  8  10473.717316  10035.239795  22290.547017      8.407302                    
V  8 -21505.755264  18129.376982   1404.984087       .001965                    
P  9  13874.702831 -21629.023069  -7287.482753     90.516164                    
V  9   7211.147323  -4854.585207  30463.802817       .024428                    
P 10  24982.731178   9233.097067  -2853.177353     -5.640908                    
V 10  -3979.604828   1817.906518 -30971.768874      -.012160                    
P 11 -11776.651659  23545.939230  -1911.708509   -165.077188                    
V 11  -5695.013214   -844.635984  30128.668183      -.032629                    
P 12   6535.787832 -13538.390574 -21869.721498      6.822053                    
V 12  26657.401868   7794.105547   3310.615433       .025733                    
P 13   4282.991009  26159.370859   -959.171696    262.693434                    
V 13  -2114.498993   -661.561938 -32398.973214      -.017087                    
P 14 -13977.535205 -16544.633151 -15312.536027    159.685265                    
V 14  -2651.758856 -19507.073329  23110.288262       .021339                    
P 15   6834.392769 -19315.558077  16816.400874   -117.838518                    
V 15   8080.106863  19968.187400  19821.709915       .021459                    
P 16 -23277.325824   2133.938116  12918.084386   -183.208565                    
V 16 -15073.433004  -6237.488269 -25865.879928      -.024622                    
P 17  14853.314453  15789.522235 -15357.833537    182.887765                    
V 17   2809.548692  19550.012195  22389.288942      -.005276                    
P 18 -14569.018020 -16190.126751  15775.294758    145.465788                    
V 18  19258.857806   3080.794800  21015.319021       .019103                    
P 19 -10175.906721  16003.238060  18436.333826   -158.311279                    
V 19  -5999.606597 -22853.023406  16871.260624      -.041324                    
P 20  -3448.064047  15507.316514 -21427.601556     50.403578                    
V 20 -26347.461373  -5845.062001     70.312683       .003178                    
P 21  -5764.251390 -15995.252540  20706.111080   -155.530164                    
V 21  19023.130339 -17164.192774  -8744.899230      -.025751                    
P 22 -23586.609584 -11050.151481   5674.557182    146.671897                    
V 22   7687.983843  -1488.601383  29877.981374      -.003355                    
P 23  -1925.185179  23737.853513 -11369.907867    294.453436                    
V 23  -6191.910309 -13437.714269 -27340.776332      -.028313                    
P 24 -12537.376500  21011.168334  -9905.273806    403.819767                    
V 24 -11547.297034   6288.337066  28095.789118       .031489                    
P 25  -7351.915170 -16028.853363 -19893.618392      7.302111                    
V 25  24712.539478   4993.455032 -13144.207739       .019456                    
P 26  12961.540063  -7286.386378  21367.831392    -80.173401                    
V 26   6008.382967  27913.439168   6096.499294      -.118306                    
P 27  17707.988304 -19529.034822     88.544122    281.322688                    
V 27   2295.631948   1161.030513  32432.267516       .037352                    
P 28  21354.733031  13273.652260   9464.447579     49.396401                    
V 28 -11227.675941  -1540.546231  28855.781275       .027653                    
P 29  -4422.052970 -26105.149618  -2341.704564    220.433152                    
V 29   3354.361013   2359.171982 -31568.108573       .030396                    
P 30 -26113.927513  -3492.325625   3035.122792     19.359888                    
V 30  -3668.599412  -3662.616142 -31440.989506       .043680                    
P 31 -18935.532576   1309.911138 -18470.383575    105.574630                    
V 31  16059.849132 -17519.374262 -17312.955095       .059389                    
P 32 -12390.476576  10935.801973 -20425.665572   -285.231930                    
V 32 -24738.959150 -10075.309866   9897.532257      -.071116                    
EOF
